[
    {
        "Altitude(m)": 708477.1081908816,
        "Argument of Periapsis(deg)": 0.0022780242373254137,
        "Eccentricity": 0.0,
        "Inclination(deg)": 45.0,
        "Latitude(deg)": -21.137333038816845,
        "Longitude(deg)": -157.74540467360177,
        "Mean Anomaly(deg)": -30.420656670503817,
        "RAAN(deg)": 324.9978496117084,
        "Satellite Name": "Constellation 1 1450",
        "Satellite Number": 1450,
        "Semi-Major Axis(m)": 7083131.272910544,
        "Time(s)": 38
    },
    {
        "Altitude(m)": 708463.7826335841,
        "Argument of Periapsis(deg)": 0.002337972243570819,
        "Eccentricity": 0.0,
        "Inclination(deg)": 45.0,
        "Latitude(deg)": -21.09752806596033,
        "Longitude(deg)": -157.70036123471598,
        "Mean Anomaly(deg)": -30.359955530253877,
        "RAAN(deg)": 324.9977930225428,
        "Satellite Name": "Constellation 1 1450",
        "Satellite Number": 1450,
        "Semi-Major Axis(m)": 7083131.272910544,
        "Time(s)": 39
    },
    {
        "Altitude(m)": 708450.4640418225,
        "Argument of Periapsis(deg)": 0.0023979202498162246,
        "Eccentricity": 0.0,
        "Inclination(deg)": 45.0,
        "Latitude(deg)": -21.057708580710855,
        "Longitude(deg)": -157.65534385668693,
        "Mean Anomaly(deg)": -30.299254390004094,
        "RAAN(deg)": 324.9977364333772,
        "Satellite Name": "Constellation 1 1450",
        "Satellite Number": 1450,
        "Semi-Major Axis(m)": 7083131.272910544,
        "Time(s)": 40
    },
    {
        "Altitude(m)": 708437.1524593097,
        "Argument of Periapsis(deg)": 0.00245786825606163,
        "Eccentricity": 0.0,
        "Inclination(deg)": 45.0,
        "Latitude(deg)": -21.017874620032348,
        "Longitude(deg)": -157.61035248100902,
        "Mean Anomaly(deg)": -30.23855324975416,
        "RAAN(deg)": 324.99767984421163,
        "Satellite Name": "Constellation 1 1450",
        "Satellite Number": 1450,
        "Semi-Major Axis(m)": 7083131.272910544,
        "Time(s)": 41
    },
    {
        "Altitude(m)": 708423.847929714,
        "Argument of Periapsis(deg)": 0.002517816262307036,
        "Eccentricity": 0.0,
        "Inclination(deg)": 45.0,
        "Latitude(deg)": -20.978026220838363,
        "Longitude(deg)": -157.56538704920217,
        "Mean Anomaly(deg)": -30.177852109504272,
        "RAAN(deg)": 324.99762325504605,
        "Satellite Name": "Constellation 1 1450",
        "Satellite Number": 1450,
        "Semi-Major Axis(m)": 7083131.272910544,
        "Time(s)": 42
    },
    {
        "Altitude(m)": 708410.5504966539,
        "Argument of Periapsis(deg)": 0.0025777642685524413,
        "Eccentricity": 0.0,
        "Inclination(deg)": 45.0,
        "Latitude(deg)": -20.938163419991383,
        "Longitude(deg)": -157.52044750281047,
        "Mean Anomaly(deg)": -30.117150969254332,
        "RAAN(deg)": 324.99756666588047,
        "Satellite Name": "Constellation 1 1450",
        "Satellite Number": 1450,
        "Semi-Major Axis(m)": 7083131.272910544,
        "Time(s)": 43
    },
    {
        "Altitude(m)": 708397.260203715,
        "Argument of Periapsis(deg)": 0.002637712274797847,
        "Eccentricity": 0.0,
        "Inclination(deg)": 45.0,
        "Latitude(deg)": -20.898286254303365,
        "Longitude(deg)": -157.4755339515007,
        "Mean Anomaly(deg)": -30.056449829004496,
        "RAAN(deg)": 324.99751007671495,
        "Satellite Name": "Constellation 1 1450",
        "Satellite Number": 1450,
        "Semi-Major Axis(m)": 7083131.272910544,
        "Time(s)": 44
    },
    {
        "Altitude(m)": 708383.9770944475,
        "Argument of Periapsis(deg)": 0.0026976602810432526,
        "Eccentricity": 0.0,
        "Inclination(deg)": 45.0,
        "Latitude(deg)": -20.858394760536328,
        "Longitude(deg)": -157.43064600067294,
        "Mean Anomaly(deg)": -29.99574868875456,
        "RAAN(deg)": 324.99745348754936,
        "Satellite Name": "Constellation 1 1450",
        "Satellite Number": 1450,
        "Semi-Major Axis(m)": 7083131.272910544,
        "Time(s)": 45
    },
    {
        "Altitude(m)": 708370.7012123462,
        "Argument of Periapsis(deg)": 0.0027576082872886585,
        "Eccentricity": 0.0,
        "Inclination(deg)": 45.0,
        "Latitude(deg)": -20.818488975401422,
        "Longitude(deg)": -157.38578376004435,
        "Mean Anomaly(deg)": -29.935047548504727,
        "RAAN(deg)": 324.9973968983838,
        "Satellite Name": "Constellation 1 1450",
        "Satellite Number": 1450,
        "Semi-Major Axis(m)": 7083131.272910544,
        "Time(s)": 46
    },
    {
        "Altitude(m)": 708357.4326008746,
        "Argument of Periapsis(deg)": 0.0028175562935340644,
        "Eccentricity": 0.0,
        "Inclination(deg)": 45.0,
        "Latitude(deg)": -20.77856893555946,
        "Longitude(deg)": -157.3409471712595,
        "Mean Anomaly(deg)": -29.874346408254787,
        "RAAN(deg)": 324.9973403092182,
        "Satellite Name": "Constellation 1 1450",
        "Satellite Number": 1450,
        "Semi-Major Axis(m)": 7083131.272910544,
        "Time(s)": 47
    },
    {
        "Altitude(m)": 708344.171303447,
        "Argument of Periapsis(deg)": 0.00287750429977947,
        "Eccentricity": 0.0,
        "Inclination(deg)": 45.0,
        "Latitude(deg)": -20.738634677621473,
        "Longitude(deg)": -157.2961361759891,
        "Mean Anomaly(deg)": -29.81364526800485,
        "RAAN(deg)": 324.9972837200526,
        "Satellite Name": "Constellation 1 1450",
        "Satellite Number": 1450,
        "Semi-Major Axis(m)": 7083131.272910544,
        "Time(s)": 48
    },
    {
        "Altitude(m)": 708330.9173634415,
        "Argument of Periapsis(deg)": 0.002937452306024875,
        "Eccentricity": 0.0,
        "Inclination(deg)": 45.0,
        "Latitude(deg)": -20.698686238148376,
        "Longitude(deg)": -157.2513507159289,
        "Mean Anomaly(deg)": -29.752944127754965,
        "RAAN(deg)": 324.9972271308871,
        "Satellite Name": "Constellation 1 1450",
        "Satellite Number": 1450,
        "Semi-Major Axis(m)": 7083131.272910544,
        "Time(s)": 49
    },
    {
        "Altitude(m)": 708317.6708241965,
        "Argument of Periapsis(deg)": 0.0029974003122702807,
        "Eccentricity": 0.0,
        "Inclination(deg)": 45.0,
        "Latitude(deg)": -20.658723653651112,
        "Longitude(deg)": -157.20659073280072,
        "Mean Anomaly(deg)": -29.692242987505125,
        "RAAN(deg)": 324.9971705417215,
        "Satellite Name": "Constellation 1 1450",
        "Satellite Number": 1450,
        "Semi-Major Axis(m)": 7083131.272910544,
        "Time(s)": 50
    },
    {
        "Altitude(m)": 708304.4317289913,
        "Argument of Periapsis(deg)": 0.0030573483185156866,
        "Eccentricity": 0.0,
        "Inclination(deg)": 45.0,
        "Latitude(deg)": -20.618746960590826,
        "Longitude(deg)": -157.16185616835156,
        "Mean Anomaly(deg)": -29.63154184725514,
        "RAAN(deg)": 324.99711395255594,
        "Satellite Name": "Constellation 1 1450",
        "Satellite Number": 1450,
        "Semi-Major Axis(m)": 7083131.272910544,
        "Time(s)": 51
    },
    {
        "Altitude(m)": 708291.2001210856,
        "Argument of Periapsis(deg)": 0.003117296324761092,
        "Eccentricity": 0.0,
        "Inclination(deg)": 45.0,
        "Latitude(deg)": -20.57875619537889,
        "Longitude(deg)": -157.11714713245166,
        "Mean Anomaly(deg)": -29.5708407070052,
        "RAAN(deg)": 324.99705736339035,
        "Satellite Name": "Constellation 1 1450",
        "Satellite Number": 1450,
        "Semi-Major Axis(m)": 7083131.272910544,
        "Time(s)": 52
    },
    {
        "Altitude(m)": 708277.9760436789,
        "Argument of Periapsis(deg)": 0.0031772443310064975,
        "Eccentricity": 0.0,
        "Inclination(deg)": 45.0,
        "Latitude(deg)": -20.53875139437801,
        "Longitude(deg)": -157.07246323070618,
        "Mean Anomaly(deg)": -29.51013956675542,
        "RAAN(deg)": 324.9970007742248,
        "Satellite Name": "Constellation 1 1450",
        "Satellite Number": 1450,
        "Semi-Major Axis(m)": 7083131.272910544,
        "Time(s)": 53
    },
    {
        "Altitude(m)": 708264.7595399349,
        "Argument of Periapsis(deg)": 0.0032371923372519038,
        "Eccentricity": 0.0,
        "Inclination(deg)": 45.0,
        "Latitude(deg)": -20.4987325939002,
        "Longitude(deg)": -157.02780457303672,
        "Mean Anomaly(deg)": -29.44943842650548,
        "RAAN(deg)": 324.99694418505925,
        "Satellite Name": "Constellation 1 1450",
        "Satellite Number": 1450,
        "Semi-Major Axis(m)": 7083131.272910544,
        "Time(s)": 54
    },
    {
        "Altitude(m)": 708251.5506529779,
        "Argument of Periapsis(deg)": 0.0032971403434973088,
        "Eccentricity": 0.0,
        "Inclination(deg)": 45.0,
        "Latitude(deg)": -20.45869983020882,
        "Longitude(deg)": -156.9831711012947,
        "Mean Anomaly(deg)": -29.388737286255544,
        "RAAN(deg)": 324.99688759589367,
        "Satellite Name": "Constellation 1 1450",
        "Satellite Number": 1450,
        "Semi-Major Axis(m)": 7083131.272910544,
        "Time(s)": 55
    },
    {
        "Altitude(m)": 708238.3494258778,
        "Argument of Periapsis(deg)": 0.0033570883497427146,
        "Eccentricity": 0.0,
        "Inclination(deg)": 45.0,
        "Latitude(deg)": -20.418653139518035,
        "Longitude(deg)": -156.93856275735766,
        "Mean Anomaly(deg)": -29.328036146005704,
        "RAAN(deg)": 324.9968310067281,
        "Satellite Name": "Constellation 1 1450",
        "Satellite Number": 1450,
        "Semi-Major Axis(m)": 7083131.272910544,
        "Time(s)": 56
    }
]